H1 CPF 01  gfz 2022 05 01 00  6211 tandemx   
H2 1003001  6202 36605    2022 05 01 00 59 42 2022 05 06 00 00 42   120 1 1  0 0 0
H9
10 0 59701  16542.000000  0   -6411604.019  -2520981.642    -22977.221
10 0 59701  16662.000000  0   -6420832.135  -2333703.113    879871.543
10 0 59701  16782.000000  0   -6314177.911  -2106476.708   1767226.209
10 0 59701  16902.000000  0   -6092833.883  -1845284.109   2623455.731
10 0 59701  17022.000000  0   -5760128.475  -1556669.416   3433478.323
10 0 59701  17142.000000  0   -5321473.273  -1247584.883   4183034.913
10 0 59701  17262.000000  0   -4784265.781   -925229.973   4858944.843
10 0 59701  17382.000000  0   -4157755.457   -596889.152   5449336.715
10 0 59701  17502.000000  0   -3452876.654   -269771.886   5943855.361
10 0 59701  17622.000000  0   -2682048.997     49142.750   6333840.196
10 0 59701  17742.000000  0   -1858950.898    353251.937   6612471.010
10 0 59701  17862.000000  0    -998271.841    636462.324   6774880.974
10 0 59701  17982.000000  0    -115448.155    893310.231   6818236.069
10 0 59701  18102.000000  0     773613.667   1119065.770   6741780.919
10 0 59701  18222.000000  0    1652822.559   1309819.821   6546851.265
10 0 59701  18342.000000  0    2506193.284   1462552.112   6236851.857
10 0 59701  18462.000000  0    3318136.902   1575179.033   5817201.258
10 0 59701  18582.000000  0    4073748.324   1646580.837   5295242.439
10 0 59701  18702.000000  0    4759082.946   1676607.799   4680119.830
10 0 59701  18822.000000  0    5361420.605   1666066.118   3982626.777
10 0 59701  18942.000000  0    5869512.622   1616682.390   3215019.076
10 0 59701  19062.000000  0    6273799.796   1531047.621   2390799.087
10 0 59701  19182.000000  0    6566602.003   1412541.312   1524477.699
10 0 59701  19302.000000  0    6742272.141   1265238.485    631313.052
10 0 59701  19422.000000  0    6797309.814   1093801.372   -272965.099
10 0 59701  19542.000000  0    6730433.184    903358.375  -1172441.797
10 0 59701  19662.000000  0    6542603.814    699372.846  -2051305.936
10 0 59701  19782.000000  0    6237007.681    487505.384  -2894134.890
10 0 59701  19902.000000  0    5818992.056    273474.340  -3686170.316
10 0 59701  20022.000000  0    5295960.319     62917.360  -4413578.907
10 0 59701  20142.000000  0    4677226.742   -138742.637  -5063691.826
10 0 59701  20262.000000  0    3973838.304   -326423.396  -5625218.103
10 0 59701  20382.000000  0    3198368.464   -495498.827  -6088432.051
10 0 59701  20502.000000  0    2364685.087   -641902.347  -6445331.862
10 0 59701  20622.000000  0    1487698.712   -762215.018  -6689765.334
10 0 59701  20742.000000  0     583097.586   -853738.500  -6817525.704
10 0 59701  20862.000000  0    -332929.690   -914550.529  -6826416.612
10 0 59701  20982.000000  0   -1243977.292   -943542.462  -6716284.792
10 0 59701  21102.000000  0   -2133709.022   -940438.964  -6489023.070
10 0 59701  21222.000000  0   -2986144.870   -905798.944  -6148540.285
10 0 59701  21342.000000  0   -3785941.158   -840998.384  -5700701.219
10 0 59701  21462.000000  0   -4518665.336   -748195.111  -5153237.417
10 0 59701  21582.000000  0   -5171058.832   -630275.442  -4515624.704
10 0 59701  21702.000000  0   -5731282.452   -490784.381  -3798930.849
10 0 59701  21822.000000  0   -6189141.509   -333839.826  -3015633.432
10 0 59701  21942.000000  0   -6536283.267   -164031.789  -2179408.797
10 0 59701  22062.000000  0   -6766362.772     13689.993  -1304896.835
10 0 59701  22182.000000  0   -6875172.860    194139.389   -407443.008
10 0 59701  22302.000000  0   -6860730.218    372023.636    497177.516
10 0 59701  22422.000000  0   -6723317.496    542076.899   1393043.386
10 0 59701  22542.000000  0   -6465481.780    699193.781   2264375.754
10 0 59701  22662.000000  0   -6091986.679    838559.571   3095825.743
10 0 59701  22782.000000  0   -5609718.833    955773.908   3872753.219
10 0 59701  22902.000000  0   -5027552.068   1046964.426   4581489.729
10 0 59701  23022.000000  0   -4356174.112   1108887.667   5209580.915
10 0 59701  23142.000000  0   -3607880.591   1139014.720   5746003.883
10 0 59701  23262.000000  0   -2796341.493   1135600.250   6181357.743
10 0 59701  23382.000000  0   -1936343.961   1097733.164   6508024.417
10 0 59701  23502.000000  0   -1043516.215   1025368.704   6720295.897
10 0 59701  23622.000000  0    -134040.709    919340.341   6814466.796
10 0 59701  23742.000000  0     775638.929    781351.888   6788894.402
10 0 59701  23862.000000  0    1669114.030    613950.121   6644025.413
10 0 59701  23982.000000  0    2530305.639    420478.345   6382388.813
10 0 59701  24102.000000  0    3343753.755    205011.292   6008555.529
10 0 59701  24222.000000  0    4094897.335    -27727.964   5529063.521
10 0 59701  24342.000000  0    4770338.798   -272467.495   4952309.094
10 0 59701  24462.000000  0    5358089.249   -523500.430   4288405.679
10 0 59701  24582.000000  0    5847789.752   -774811.661   3549011.398
10 0 59701  24702.000000  0    6230904.532  -1020214.345   2747126.870
10 0 59701  24822.000000  0    6500879.768  -1253493.271   1896865.335
10 0 59701  24942.000000  0    6653263.418  -1468550.751   1013200.238
10 0 59701  25062.000000  0    6685784.735  -1659553.412    111696.230
10 0 59701  25182.000000  0    6598390.510  -1821075.540   -791774.212
10 0 59701  25302.000000  0    6393234.494  -1948233.386  -1681319.393
10 0 59701  25422.000000  0    6074623.352  -2036808.885  -2541316.468
10 0 59701  25542.000000  0    5648918.807  -2083358.721  -3356692.017
10 0 59701  25662.000000  0    5124400.756  -2085306.411  -4113188.671
10 0 59701  25782.000000  0    4511095.990  -2041015.431  -4797613.709
10 0 59701  25902.000000  0    3820575.765  -1949842.352  -5398065.443
10 0 59701  26022.000000  0    3065727.265  -1812168.800  -5904132.088
10 0 59701  26142.000000  0    2260507.158  -1629411.555  -6307061.072
10 0 59701  26262.000000  0    1419681.566  -1404011.196  -6599900.358
10 0 59701  26382.000000  0     558554.739  -1139399.745  -6777607.474
10 0 59701  26502.000000  0    -307305.839   -839948.784  -6837126.738
10 0 59701  26622.000000  0   -1162344.831   -510898.108  -6777435.525
10 0 59701  26742.000000  0   -1991291.951   -158266.140  -6599560.214
10 0 59701  26862.000000  0   -2779428.487    211257.426  -6306559.414
10 0 59701  26982.000000  0   -3512842.491    590434.155  -5903476.918
10 0 59701  27102.000000  0   -4178672.084    971614.059  -5397265.103
10 0 59701  27222.000000  0   -4765332.695   1346884.596  -4796676.045
10 0 59701  27342.000000  0   -5262724.386   1708230.860  -4112122.956
10 0 59701  27462.000000  0   -5662414.279   2047703.425  -3355509.146
10 0 59701  27582.000000  0   -5957789.761   2357588.897  -2540029.165
10 0 59701  27702.000000  0   -6144179.798   2630580.782  -1679943.505
10 0 59701  27822.000000  0   -6218939.898   2859946.634   -790329.927
10 0 59701  27942.000000  0   -6181498.052   3039687.016    113184.212
10 0 59701  28062.000000  0   -6033358.894   3164681.430   1014703.809
10 0 59701  28182.000000  0   -5778064.700   3230817.747   1898354.364
10 0 59701  28302.000000  0   -5421115.285   3235101.438   2748570.572
10 0 59701  28422.000000  0   -4969849.006   3175741.963   3550378.466
10 0 59701  28542.000000  0   -4433287.608   3052213.523   4289666.197
10 0 59701  28662.000000  0   -3821948.716   2865288.788   4953435.674
10 0 59701  28782.000000  0   -3147632.862   2617046.164   5530031.077
10 0 59701  28902.000000  0   -2423188.602   2310850.680   6009342.308
10 0 59701  29022.000000  0   -1662260.782   1951307.817   6382977.947
10 0 59701  29142.000000  0    -879028.192   1544192.141   6644405.839
10 0 59701  29262.000000  0     -87937.627   1096352.419   6789059.873
10 0 59701  29382.000000  0     696562.120    615595.007   6814414.824
10 0 59701  29502.000000  0    1460283.375    110547.723   6720027.416
10 0 59701  29622.000000  0    2189554.943   -409494.188   6507543.871
10 0 59701  29742.000000  0    2871466.332   -934738.640   6180673.917
10 0 59701  29862.000000  0    3494097.844  -1455080.001   5745130.759
10 0 59701  29982.000000  0    4046732.780  -1960293.290   5208536.726
10 0 59701  30102.000000  0    4520046.139  -2440235.090   4580295.089
10 0 59701  30222.000000  0    4906268.360  -2885048.137   3871431.622
10 0 59701  30342.000000  0    5199321.083  -3285366.001   3094404.654
10 0 59701  30462.000000  0    5394919.798  -3632511.557   2262885.421
10 0 59701  30582.000000  0    5490639.842  -3918685.197   1391514.898
10 0 59701  30702.000000  0    5485945.962  -4137139.037    495641.039
10 0 59701  30822.000000  0    5382183.696  -4282330.766   -408958.897
10 0 59701  30942.000000  0    5182532.783  -4350054.887  -1306365.113
10 0 59701  31062.000000  0    4891923.051  -4337546.118  -2180804.482
10 0 59701  31182.000000  0    4516915.316  -4243553.226  -3016935.214
10 0 59701  31302.000000  0    4065551.237  -4068382.025  -3800120.621
10 0 59701  31422.000000  0    3547175.926  -3813906.152  -4516686.610
10 0 59701  31542.000000  0    2972238.720  -3483546.810  -5154157.629
10 0 59701  31662.000000  0    2352077.076  -3082222.176  -5701467.047
10 0 59701  31782.000000  0    1698690.119  -2616269.264  -6149138.606
10 0 59701  31902.000000  0    1024506.181  -2093340.548  -6489440.678
10 0 59701  32022.000000  0     342146.708  -1522274.570  -6716509.931
10 0 59701  32142.000000  0    -335807.115   -912945.088  -6826441.402
10 0 59701  32262.000000  0    -997040.906   -276092.123  -6817347.211
10 0 59701  32382.000000  0   -1629725.214    376863.137  -6689385.127
10 0 59701  32502.000000  0   -2222722.281   1034017.834  -6444755.493
10 0 59701  32622.000000  0   -2765777.488   1683198.820  -6087667.536
10 0 59701  32742.000000  0   -3249694.183   2312182.618  -5624275.183
10 0 59701  32862.000000  0   -3666490.407   2908922.372  -5062582.797
10 0 59701  32982.000000  0   -4009535.014   3461777.925  -4412318.531
99
